{
  "type": "FeatureCollection",
  "features": [
    {
      "type": "Feature",
      "properties": {
        "norad_id": 31028,
        "name": "FENGYUN 1C DEB",
        "group": "fengyun-1c-debris",
        "lat": 24.43010156240016,
        "lon": -90.19761634212222,
        "alt_km": 900.6442405863545,
        "timestamp": "2025-12-07T14:37:05.484756+00:00",
        "meta_object_name": "FENGYUN 1C DEB",
        "meta_object_id": "1999-025BDW",
        "meta_epoch": "2025-11-26T01:54:24.970752",
        "meta_mean_motion": 13.89048666,
        "meta_eccentricity": 0.01654825,
        "meta_inclination": 98.7043,
        "meta_ra_of_asc_node": 263.016,
        "meta_arg_of_pericenter": 340.0889,
        "meta_mean_anomaly": 19.3862,
        "meta_ephemeris_type": 0,
        "meta_classification_type": "U",
        "meta_norad_cat_id": 31028,
        "meta_element_set_no": 999,
        "meta_rev_at_epoch": 61772,
        "meta_bstar": 0.00043609826,
        "meta_mean_motion_dot": 5.49e-06,
        "meta_mean_motion_ddot": 0,
        "tle_line1": "1 31028U 99025BDW 25330.07945568  .00000549  00000+0  43610-3 0  9990",
        "tle_line2": "2 31028  98.7043 263.0160 0165482 340.0889  19.3862 13.89048666617726"
      },
      "geometry": {
        "type": "Point",
        "coordinates": [
          -90.19761634212222,
          24.43010156240016
        ]
      }
    },
    {
      "type": "Feature",
      "properties": {
        "norad_id": 31029,
        "name": "FENGYUN 1C DEB",
        "group": "fengyun-1c-debris",
        "lat": -10.056585417584266,
        "lon": 56.79660026212244,
        "alt_km": 793.6449653124855,
        "timestamp": "2025-12-07T14:37:05.484767+00:00",
        "meta_object_name": "FENGYUN 1C DEB",
        "meta_object_id": "1999-025BDX",
        "meta_epoch": "2025-12-06T11:46:58.207872",
        "meta_mean_motion": 14.34304915,
        "meta_eccentricity": 0.00900477,
        "meta_inclination": 98.8586,
        "meta_ra_of_asc_node": 237.2359,
        "meta_arg_of_pericenter": 91.979,
        "meta_mean_anomaly": 86.8318,
        "meta_ephemeris_type": 0,
        "meta_classification_type": "U",
        "meta_norad_cat_id": 31029,
        "meta_element_set_no": 999,
        "meta_rev_at_epoch": 97706,
        "meta_bstar": 0.00059757557,
        "meta_mean_motion_dot": 1.711e-05,
        "meta_mean_motion_ddot": 0,
        "tle_line1": "1 31029U 99025BDX 25340.49095148  .00001711  00000+0  59758-3 0  9990",
        "tle_line2": "2 31029  98.8586 237.2359 0090047  91.9790  86.8318 14.34304915977064"
      },
      "geometry": {
        "type": "Point",
        "coordinates": [
          56.79660026212244,
          -10.056585417584266
        ]
      }
    },
    {
      "type": "Feature",
      "properties": {
        "norad_id": 31030,
        "name": "FENGYUN 1C DEB",
        "group": "fengyun-1c-debris",
        "lat": -27.11063705181278,
        "lon": -140.98246864898357,
        "alt_km": 825.1842476650936,
        "timestamp": "2025-12-07T14:37:05.484777+00:00",
        "meta_object_name": "FENGYUN 1C DEB",
        "meta_object_id": "1999-025BDY",
        "meta_epoch": "2025-12-06T10:44:14.966016",
        "meta_mean_motion": 14.2363526,
        "meta_eccentricity": 0.00281759,
        "meta_inclination": 98.7674,
        "meta_ra_of_asc_node": 42.3915,
        "meta_arg_of_pericenter": 102.027,
        "meta_mean_anomaly": 274.5643,
        "meta_ephemeris_type": 0,
        "meta_classification_type": "U",
        "meta_norad_cat_id": 31030,
        "meta_element_set_no": 999,
        "meta_rev_at_epoch": 96615,
        "meta_bstar": 0.0018112752,
        "meta_mean_motion_dot": 4.104e-05,
        "meta_mean_motion_ddot": 0,
        "tle_line1": "1 31030U 99025BDY 25340.44739544  .00004104  00000+0  18113-2 0  9990",
        "tle_line2": "2 31030  98.7674  42.3915 0028175 102.0270 274.5643 14.23635260966159"
      },
      "geometry": {
        "type": "Point",
        "coordinates": [
          -140.98246864898357,
          -27.11063705181278
        ]
      }
    },
    {
      "type": "Feature",
      "properties": {
        "norad_id": 31031,
        "name": "FENGYUN 1C DEB",
        "group": "fengyun-1c-debris",
        "lat": -76.00848960477424,
        "lon": 38.6974239513649,
        "alt_km": 818.7066704049867,
        "timestamp": "2025-12-07T14:37:05.484787+00:00",
        "meta_object_name": "FENGYUN 1C DEB",
        "meta_object_id": "1999-025BDZ",
        "meta_epoch": "2025-12-06T17:15:45.296928",
        "meta_mean_motion": 14.20967849,
        "meta_eccentricity": 0.0027503,
        "meta_inclination": 99.0712,
        "meta_ra_of_asc_node": 257.6633,
        "meta_arg_of_pericenter": 204.2383,
        "meta_mean_anomaly": 185.4692,
        "meta_ephemeris_type": 0,
        "meta_classification_type": "U",
        "meta_norad_cat_id": 31031,
        "meta_element_set_no": 999,
        "meta_rev_at_epoch": 96769,
        "meta_bstar": 0.00074154334,
        "meta_mean_motion_dot": 1.566e-05,
        "meta_mean_motion_ddot": 0,
        "tle_line1": "1 31031U 99025BDZ 25340.71927427  .00001566  00000+0  74154-3 0  9997",
        "tle_line2": "2 31031  99.0712 257.6633 0027503 204.2383 185.4692 14.20967849967691"
      },
      "geometry": {
        "type": "Point",
        "coordinates": [
          38.6974239513649,
          -76.00848960477424
        ]
      }
    },
    {
      "type": "Feature",
      "properties": {
        "norad_id": 31032,
        "name": "FENGYUN 1C DEB",
        "group": "fengyun-1c-debris",
        "lat": -79.93259960691447,
        "lon": 101.36242945221238,
        "alt_km": 836.8319743854809,
        "timestamp": "2025-12-07T14:37:05.484798+00:00",
        "meta_object_name": "FENGYUN 1C DEB",
        "meta_object_id": "1999-025BEA",
        "meta_epoch": "2025-12-05T23:48:45.535680",
        "meta_mean_motion": 14.02158788,
        "meta_eccentricity": 0.01387587,
        "meta_inclination": 99.3999,
        "meta_ra_of_asc_node": 348.6082,
        "meta_arg_of_pericenter": 214.4192,
        "meta_mean_anomaly": 173.3161,
        "meta_ephemeris_type": 0,
        "meta_classification_type": "U",
        "meta_norad_cat_id": 31032,
        "meta_element_set_no": 999,
        "meta_rev_at_epoch": 94887,
        "meta_bstar": 0.0020928879,
        "meta_mean_motion_dot": 3.436e-05,
        "meta_mean_motion_ddot": 0,
        "tle_line1": "1 31032U 99025BEA 25339.99219370  .00003436  00000+0  20929-2 0  9995",
        "tle_line2": "2 31032  99.3999 348.6082 0138758 214.4192 173.3161 14.02158788948877"
      },
      "geometry": {
        "type": "Point",
        "coordinates": [
          101.36242945221238,
          -79.93259960691447
        ]
      }
    },
    {
      "type": "Feature",
      "properties": {
        "norad_id": 31033,
        "name": "FENGYUN 1C DEB",
        "group": "fengyun-1c-debris",
        "lat": -34.412235385850764,
        "lon": 134.27497482211427,
        "alt_km": 803.4343242630875,
        "timestamp": "2025-12-07T14:37:05.484808+00:00",
        "meta_object_name": "FENGYUN 1C DEB",
        "meta_object_id": "1999-025BEB",
        "meta_epoch": "2025-12-06T04:16:15.078720",
        "meta_mean_motion": 14.27441573,
        "meta_eccentricity": 0.01539162,
        "meta_inclination": 98.4377,
        "meta_ra_of_asc_node": 318.729,
        "meta_arg_of_pericenter": 129.6399,
        "meta_mean_anomaly": 293.2173,
        "meta_ephemeris_type": 0,
        "meta_classification_type": "U",
        "meta_norad_cat_id": 31033,
        "meta_element_set_no": 999,
        "meta_rev_at_epoch": 97252,
        "meta_bstar": 0.00028349807,
        "meta_mean_motion_dot": 7.46e-06,
        "meta_mean_motion_ddot": 0,
        "tle_line1": "1 31033U 99025BEB 25340.17795230  .00000746  00000+0  28350-3 0  9990",
        "tle_line2": "2 31033  98.4377 318.7290 0153916 129.6399 293.2173 14.27441573972524"
      },
      "geometry": {
        "type": "Point",
        "coordinates": [
          134.27497482211427,
          -34.412235385850764
        ]
      }
    },
    {
      "type": "Feature",
      "properties": {
        "norad_id": 31036,
        "name": "FENGYUN 1C DEB",
        "group": "fengyun-1c-debris",
        "lat": -15.053737921243814,
        "lon": 90.19956326123491,
        "alt_km": 690.5651001831902,
        "timestamp": "2025-12-07T14:37:05.484818+00:00",
        "meta_object_name": "FENGYUN 1C DEB",
        "meta_object_id": "1999-025BEE",
        "meta_epoch": "2025-12-06T13:53:15.239040",
        "meta_mean_motion": 14.49054035,
        "meta_eccentricity": 0.0137609,
        "meta_inclination": 98.9155,
        "meta_ra_of_asc_node": 86.6915,
        "meta_arg_of_pericenter": 283.2359,
        "meta_mean_anomaly": 87.9061,
        "meta_ephemeris_type": 0,
        "meta_classification_type": "U",
        "meta_norad_cat_id": 31036,
        "meta_element_set_no": 999,
        "meta_rev_at_epoch": 57218,
        "meta_bstar": 0.00040636312,
        "meta_mean_motion_dot": 1.682e-05,
        "meta_mean_motion_ddot": 0,
        "tle_line1": "1 31036U 99025BEE 25340.57864860  .00001682  00000+0  40636-3 0  9994",
        "tle_line2": "2 31036  98.9155  86.6915 0137609 283.2359  87.9061 14.49054035572184"
      },
      "geometry": {
        "type": "Point",
        "coordinates": [
          90.19956326123491,
          -15.053737921243814
        ]
      }
    }
  ]
}